[{"OBJECT_NAME":"STARLINK-3766","OBJECT_ID":"2022-041AM","EPOCH":"2026-03-09T19:13:41.018016","MEAN_MOTION":15.08840188,"ECCENTRICITY":0.0001405,"INCLINATION":53.2167,"RA_OF_ASC_NODE":98.6191,"ARG_OF_PERICENTER":90.4516,"MEAN_ANOMALY":269.6637,"EPHEMERIS_TYPE":0,"CLASSIFICATION_TYPE":"U","NORAD_CAT_ID":52296,"ELEMENT_SET_NO":999,"REV_AT_EPOCH":21452,"BSTAR":1.8732285e-5,"MEAN_MOTION_DOT":1.0e-7,"MEAN_MOTION_DDOT":0},{"OBJECT_NAME":"HALCA (MUSES-B)","OBJECT_ID":"1997-005A","EPOCH":"2026-03-08T02:16:30.359712","MEAN_MOTION":3.84736603,"ECCENTRICITY":0.59802638,"INCLINATION":31.3305,"RA_OF_ASC_NODE":338.8586,"ARG_OF_PERICENTER":124.358,"MEAN_ANOMALY":1.0484,"EPHEMERIS_TYPE":0,"CLASSIFICATION_TYPE":"U","NORAD_CAT_ID":24720,"ELEMENT_SET_NO":999,"REV_AT_EPOCH":40577,"BSTAR":0.0016676195,"MEAN_MOTION_DOT":3.34e-6,"MEAN_MOTION_DDOT":0}]
